[{"OBJECT_NAME":"ICESAT-2","OBJECT_ID":"2018-070A","EPOCH":"2026-03-09T22:54:12.225888","MEAN_MOTION":15.28328617,"ECCENTRICITY":0.00038245,"INCLINATION":91.9993,"RA_OF_ASC_NODE":264.2397,"ARG_OF_PERICENTER":123.8941,"MEAN_ANOMALY":236.2673,"EPHEMERIS_TYPE":0,"CLASSIFICATION_TYPE":"U","NORAD_CAT_ID":43613,"ELEMENT_SET_NO":999,"REV_AT_EPOCH":41730,"BSTAR":0.00014022643,"MEAN_MOTION_DOT":3.87e-5,"MEAN_MOTION_DDOT":0},{"OBJECT_NAME":"STARLINK-31213","OBJECT_ID":"2024-019H","EPOCH":"2026-03-09T13:30:58.734720","MEAN_MOTION":15.27576365,"ECCENTRICITY":0.00013594,"INCLINATION":43.0024,"RA_OF_ASC_NODE":249.5899,"ARG_OF_PERICENTER":272.271,"MEAN_ANOMALY":87.7986,"EPHEMERIS_TYPE":0,"CLASSIFICATION_TYPE":"U","NORAD_CAT_ID":58860,"ELEMENT_SET_NO":999,"REV_AT_EPOCH":11906,"BSTAR":2.2325467e-5,"MEAN_MOTION_DOT":3.52e-6,"MEAN_MOTION_DDOT":0}]
